[{"OBJECT_NAME":"STARLINK-6031","OBJECT_ID":"2023-078AV","EPOCH":"2026-03-09T23:18:26.902080","MEAN_MOTION":14.98332152,"ECCENTRICITY":0.00025154,"INCLINATION":70.0012,"RA_OF_ASC_NODE":343.6972,"ARG_OF_PERICENTER":270.1181,"MEAN_ANOMALY":89.969,"EPHEMERIS_TYPE":0,"CLASSIFICATION_TYPE":"U","NORAD_CAT_ID":56810,"ELEMENT_SET_NO":999,"REV_AT_EPOCH":15272,"BSTAR":2.14396e-6,"MEAN_MOTION_DOT":-6.7e-7,"MEAN_MOTION_DDOT":0},{"OBJECT_NAME":"CZ-6A DEB","OBJECT_ID":"2022-151ACK","EPOCH":"2026-03-09T17:07:55.484832","MEAN_MOTION":14.91029585,"ECCENTRICITY":0.00541971,"INCLINATION":98.6318,"RA_OF_ASC_NODE":144.964,"ARG_OF_PERICENTER":183.961,"MEAN_ANOMALY":176.1184,"EPHEMERIS_TYPE":0,"CLASSIFICATION_TYPE":"U","NORAD_CAT_ID":56267,"ELEMENT_SET_NO":999,"REV_AT_EPOCH":16429,"BSTAR":0.0040603804,"MEAN_MOTION_DOT":0.00041466,"MEAN_MOTION_DDOT":0}]
